#aV2008  6  1  0  0   .00000000      96 DD+AD WGS84 FIT  NGA
## 1482       .00000000   900.00000000 54618  .0000000000000
+   31     2  3  4  5  6  7  8  9 10 11 12 13 14 15 16 17 18
+         19 20 21 22 23 24 25 26 27 28 29 30 31 32  0  0  0
+          0  0  0  0  0  0  0  0  0  0  0  0  0  0  0  0  0
+          0  0  0  0  0  0  0  0  0  0  0  0  0  0  0  0  0
+          0  0  0  0  0  0  0  0  0  0  0  0  0  0  0  0  0
++         0  0  0  0  0  0  0  0  0  0  0  0  0  0  0  0  0
++         0  0  0  0  0  0  0  0  0  0  0  0  0  0  0  0  0
++         0  0  0  0  0  0  0  0  0  0  0  0  0  0  0  0  0
++         0  0  0  0  0  0  0  0  0  0  0  0  0  0  0  0  0
++         0  0  0  0  0  0  0  0  0  0  0  0  0  0  0  0  0
%c cc cc ccc ccc cccc cccc cccc cccc ccccc ccccc ccccc ccccc
%c cc cc ccc ccc cccc cccc cccc cccc ccccc ccccc ccccc ccccc
%f  0.0000000  0.000000000  0.00000000000  0.000000000000000
%f  0.0000000  0.000000000  0.00000000000  0.000000000000000
%i    0    0    0    0      0      0      0      0         0
%i    0    0    0    0      0      0      0      0         0
/*      NGA, ST. LOUIS,MO.                                  
/*   EPHEMERIS COMPUTED FROM  3 DAYS OF DATA                
/* CCCCCCCCCCCCCCCCCCCCCCCCCCCCCCCCCCCCCCCCCCCCCCCCCCCCCCCCC
/* CCCCCCCCCCCCCCCCCCCCCCCCCCCCCCCCCCCCCCCCCCCCCCCCCCCCCCCCC
*  2008  6  1 12  0   .00000000                                                 
P  2  21341.755168 -12995.922297   8302.148084    205.810531                    
V  2  11408.314509      5.635733 -29129.208389       .008892                    
P  3 -11093.768914  21041.045027  11189.894095    236.149927                    
V  3  -1819.891844 -15138.069723  26417.557564       .052181                    
P  4  25987.648790  -6084.697925  -2022.291010    -80.632292                    
V  4  -1475.975992   3607.899456 -30985.212427      -.088949                    
P  5 -12797.612899 -20494.040777 -11461.854770    785.973436                    
V  5  12815.137830   6541.348497 -26493.354469       .085839                    
P  6 -14812.303119  15719.852835  15674.666266    139.907630                    
V  6   1265.757613 -19743.442687  21219.302604       .076151                    
P  7  14564.362713  10003.847800  19824.541702    -29.919547                    
V  7 -23798.578415   8379.916757  13167.340841       .081357                    
P  8  24116.621834   1877.566395  11412.570361   -155.538564                    
V  8 -13652.868430   4867.583437  27386.254756      -.015772                    
P  9   1588.652543 -16157.323850 -21626.210651    127.090787                    
V  9  24776.270593  -7874.870800   8095.290174       .017323                    
P 10  10004.613420 -11307.828856  21705.521366     -1.902084                    
V 10  20043.039093  19399.215004   1180.581506      -.003096                    
P 11   2980.082101  16976.955770 -20312.657497     25.109211                    
V 11 -23376.307563  11051.382686   6185.002644      -.004301                    
P 12  -7866.934551 -20974.142663 -14252.864431   -358.895130                    
V 12  14657.303058  10994.858671 -24021.039107       .002588                    
P 13   8008.994547  16723.463172  18904.646024    257.912483                    
V 13  -7477.048812  23003.165960 -17052.627469       .016722                    
P 14 -15043.342867    897.116591 -21760.720787   -260.361852                    
V 14   6730.294624 -26977.299430  -5835.483646       .042515                    
P 15   6899.826800 -25586.800694   1724.413485   -119.827151                    
V 15   2391.980534   2748.796821  31584.394376      -.058657                    
P 16 -14169.406478   6943.172143  21464.356814    122.967730                    
V 16 -19098.982007 -19144.616906  -6237.744431      -.014788                    
P 17  15679.810428  -1055.627103 -21351.092054     38.783387                    
V 17  -5925.052752  26591.067697  -5813.004796      -.001271                    
P 18 -19649.471011 -18072.550941  -1661.765018   -172.070714                    
V 18    443.627132  -3693.781080  31134.355119       .039842                    
P 19  -8220.293932  25141.737892    664.346717     31.114216                    
V 19  -2746.244624  -1623.554516  31778.244862       .007910                    
P 20   9465.919197  21201.008886 -13050.121578    113.095126                    
V 20 -13862.403090  -9117.088117 -25052.609679      -.008332                    
P 21 -19842.635034  -7225.883741  16652.164288     62.597864                    
V 21  19391.862732  -7270.530573  19565.464921      -.011514                    
P 22 -21353.976900  -7598.276662 -13737.725692    211.354431                    
V 22 -10588.515670 -14430.950802  24114.977410       .002114                    
P 23    868.640518  24617.211049   9535.457500    356.966851                    
V 23  -5212.788102  11376.299454 -28925.237497       .021027                    
P 24  -5276.834999 -14581.150396  21718.432738     98.411003                    
V 24  26346.721917  -6861.014937   2081.899642       .030640                    
P 25   7508.425391  13399.436615  22020.200930   -191.693626                    
V 25 -24972.479520  10524.179290   2324.256262      -.277860                    
P 26   9834.291833 -23814.325940   4607.643304    265.269071                    
V 26    400.741549   6919.143240  32108.123549       .076928                    
P 27  16703.335359   8201.429380  19679.248105    192.467413                    
V 27 -21692.724678   9057.177868  15029.008706       .026795                    
P 28  21614.587653   9627.357535 -12008.651427    -19.591535                    
V 28   9681.965925  12579.886099  26332.192207      -.004288                    
P 29  -7045.566483 -19588.385876  16632.774807    -42.750640                    
V 29   6902.238136 -19794.839216 -20508.549154       .003200                    
P 30 -17591.642046 -19520.506782  -4565.023130     79.132464                    
V 30   6030.957448   1232.857027 -30712.078548       .017213                    
P 31 -25477.830057   7711.616865   -164.063700    -21.904449                    
V 31   -300.826745  -2515.817643 -31844.908150      -.013640                    
P 32  -4045.382830  16258.684941 -20238.982682    292.528712                    
V 32 -18473.798268 -19122.975752 -11261.596297       .047196                    
EOF
